
    {
        "ARG_OF_PERICENTER": 246.5234,
        "BSTAR": 9.9263e-05,
        "CLASSIFICATION_TYPE": "U",
        "ECCENTRICITY": 0.000728,
        "ELEMENT_SET_NO": 999,
        "EPHEMERIS_TYPE": 0,
        "EPOCH": "2026-03-29T03:34:03.535392",
        "INCLINATION": 51.6384,
        "MEAN_ANOMALY": 113.4983,
        "MEAN_MOTION": 15.32434802,
        "MEAN_MOTION_DDOT": 0,
        "MEAN_MOTION_DOT": 2.786e-05,
        "NORAD_CAT_ID": 66174,
        "OBJECT_ID": "2025-241A",
        "OBJECT_NAME": "HTV-X1",
        "RA_OF_ASC_NODE": 339.2964,
        "REV_AT_EPOCH": 2392
    },
    {
        "ARG_OF_PERICENTER": 213.355,
        "BSTAR": 0.00035621,
        "CLASSIFICATION_TYPE": "U",
        "ECCENTRICITY": 0.0001715,
        "ELEMENT_SET_NO": 999,
        "EPHEMERIS_TYPE": 0,
        "EPOCH": "2026-03-29T00:54:26.680320",
        "INCLINATION": 41.4742,
        "MEAN_ANOMALY": 146.7184,
        "MEAN_MOTION": 15.70036431,
        "MEAN_MOTION_DDOT": 0,
        "MEAN_MOTION_DOT": 0.00044105,
        "NORAD_CAT_ID": 66515,
        "OBJECT_ID": "2025-246C",
        "OBJECT_NAME": "SZ-21 MODULE",
        "RA_OF_ASC_NODE": 84.1231,
        "REV_AT_EPOCH": 2111
    },
    {
        "ARG_OF_PERICENTER": 51.5615,
        "BSTAR": 0.00017362,
        "CLASSIFICATION_TYPE": "U",
        "ECCENTRICITY": 0.0003972,
        "ELEMENT_SET_NO": 999,
        "EPHEMERIS_TYPE": 0,
        "EPOCH": "2026-03-28T23:18:08.263008",
        "INCLINATION": 41.4668,
        "MEAN_ANOMALY": 308.558,
        "MEAN_MOTION": 15.61596075,
        "MEAN_MOTION_DDOT": 0,
        "MEAN_MOTION_DOT": 0.00015046,
        "NORAD_CAT_ID": 66645,
        "OBJECT_ID": "2025-272A",
        "OBJECT_NAME": "SHENZHOU-22",
        "RA_OF_ASC_NODE": 90.7542,
        "REV_AT_EPOCH": 28085
    },
    {
        "ARG_OF_PERICENTER": 245.2164,
        "BSTAR": 0.00023326,
        "CLASSIFICATION_TYPE": "U",
        "ECCENTRICITY": 0.0006215,
        "ELEMENT_SET_NO": 999,
        "EPHEMERIS_TYPE": 0,
        "EPOCH": "2026-03-29T03:11:03.043104",
        "INCLINATION": 51.6344,
        "MEAN_ANOMALY": 114.8178,
        "MEAN_MOTION": 15.4862434,
        "MEAN_MOTION_DDOT": 0,
        "MEAN_MOTION_DOT": 0.0001226,
        "NORAD_CAT_ID": 66664,
        "OBJECT_ID": "2025-275A",
        "OBJECT_NAME": "SOYUZ-MS 28",
        "RA_OF_ASC_NODE": 336.2407,
        "REV_AT_EPOCH": 55942
    },
    {
        "ARG_OF_PERICENTER": 200.7419,
        "BSTAR": 0.00045468,
        "CLASSIFICATION_TYPE": "U",
        "ECCENTRICITY": 0.0002979,
        "ELEMENT_SET_NO": 999,
        "EPHEMERIS_TYPE": 0,
        "EPOCH": "2026-03-28T23:19:03.065664",
        "INCLINATION": 51.6302,
        "MEAN_ANOMALY": 159.3453,
        "MEAN_MOTION": 15.57505635,
        "MEAN_MOTION_DDOT": 0,
        "MEAN_MOTION_DOT": 0.00033749,
        "NORAD_CAT_ID": 66906,
        "OBJECT_ID": "1998-067XS",
        "OBJECT_NAME": "DUPLEX",
        "RA_OF_ASC_NODE": 332.917,
        "REV_AT_EPOCH": 1813
    },
    {
        "ARG_OF_PERICENTER": 205.147,
        "BSTAR": 0.0014473,
        "CLASSIFICATION_TYPE": "U",
        "ECCENTRICITY": 0.0006045,
        "ELEMENT_SET_NO": 999,
        "EPHEMERIS_TYPE": 0,
        "EPOCH": "2026-03-29T00:39:43.520256",
        "INCLINATION": 51.6243,
        "MEAN_ANOMALY": 154.9236,
        "MEAN_MOTION": 15.76429698,
        "MEAN_MOTION_DDOT": 0,
        "MEAN_MOTION_DOT": 0.00240433,
        "NORAD_CAT_ID": 66907,
        "OBJECT_ID": "1998-067XT",
        "OBJECT_NAME": "ISS OBJECT XT",
        "RA_OF_ASC_NODE": 326.5038,
        "REV_AT_EPOCH": 1822
    },
    {
        "ARG_OF_PERICENTER": 205.0225,
        "BSTAR": 0.0014811,
        "CLASSIFICATION_TYPE": "U",
        "ECCENTRICITY": 0.0006285,
        "ELEMENT_SET_NO": 999,
        "EPHEMERIS_TYPE": 0,
        "EPOCH": "2026-03-29T00:34:12.711072",
        "INCLINATION": 51.6247,
        "MEAN_ANOMALY": 155.0471,
        "MEAN_MOTION": 15.7669169,
        "MEAN_MOTION_DDOT": 0,
        "MEAN_MOTION_DOT": 0.00249218,
        "NORAD_CAT_ID": 66908,
        "OBJECT_ID": "1998-067XU",
        "OBJECT_NAME": "ISS OBJECT XU",
        "RA_OF_ASC_NODE": 326.4734,
        "REV_AT_EPOCH": 1822
    },
    {
        "ARG_OF_PERICENTER": 211.1784,
        "BSTAR": 0.0016517,
        "CLASSIFICATION_TYPE": "U",
        "ECCENTRICITY": 0.0007067,
        "ELEMENT_SET_NO": 999,
        "EPHEMERIS_TYPE": 0,
        "EPOCH": "2026-03-29T00:57:48.042432",
        "INCLINATION": 51.6214,
        "MEAN_ANOMALY": 148.8799,
        "MEAN_MOTION": 15.82009112,
        "MEAN_MOTION_DDOT": 0,
        "MEAN_MOTION_DOT": 0.00358553,
        "NORAD_CAT_ID": 66909,
        "OBJECT_ID": "1998-067XV",
        "OBJECT_NAME": "SILVERSAT",
        "RA_OF_ASC_NODE": 325.0706,
        "REV_AT_EPOCH": 1824
    },
    {
        "ARG_OF_PERICENTER": 202.5338,
        "BSTAR": 0.001371,
        "CLASSIFICATION_TYPE": "U",
        "ECCENTRICITY": 0.0006342,
        "ELEMENT_SET_NO": 999,
        "EPHEMERIS_TYPE": 0,
        "EPOCH": "2026-03-29T00:50:14.989344",
        "INCLINATION": 51.6232,
        "MEAN_ANOMALY": 157.5384,
        "MEAN_MOTION": 15.74966999,
        "MEAN_MOTION_DDOT": 0,
        "MEAN_MOTION_DOT": 0.00212904,
        "NORAD_CAT_ID": 66910,
        "OBJECT_ID": "1998-067XW",
        "OBJECT_NAME": "ISS OBJECT XW",
        "RA_OF_ASC_NODE": 326.5457,
        "REV_AT_EPOCH": 1822
    },
    {
        "ARG_OF_PERICENTER": 215.9725,
        "BSTAR": 0.001809,
        "CLASSIFICATION_TYPE": "U",
        "ECCENTRICITY": 0.0008896,
        "ELEMENT_SET_NO": 999,
        "EPHEMERIS_TYPE": 0,
        "EPOCH": "2026-03-29T01:03:10.863936",
        "INCLINATION": 51.6187,
        "MEAN_ANOMALY": 144.0682,
        "MEAN_MOTION": 15.88734318,
        "MEAN_MOTION_DDOT": 0,
        "MEAN_MOTION_DOT": 0.00556003,
        "NORAD_CAT_ID": 66911,
        "OBJECT_ID": "1998-067XX",
        "OBJECT_NAME": "ISS OBJECT XX",
        "RA_OF_ASC_NODE": 323.5595,
        "REV_AT_EPOCH": 1825
    },
    {
        "ARG_OF_PERICENTER": 201.5459,
        "BSTAR": 0.0010294,
        "CLASSIFICATION_TYPE": "U",
        "ECCENTRICITY": 0.000432,
        "ELEMENT_SET_NO": 999,
        "EPHEMERIS_TYPE": 0,
        "EPOCH": "2026-03-29T01:11:41.978688",
        "INCLINATION": 51.627,
        "MEAN_ANOMALY": 158.5356,
        "MEAN_MOTION": 15.67649545,
        "MEAN_MOTION_DDOT": 0,
        "MEAN_MOTION_DOT": 0.00115852,
        "NORAD_CAT_ID": 66912,
        "OBJECT_ID": "1998-067XY",
        "OBJECT_NAME": "ISS OBJECT XY",
        "RA_OF_ASC_NODE": 328.9267,
        "REV_AT_EPOCH": 1818
    },
    {
        "ARG_OF_PERICENTER": 255.4599,
        "BSTAR": 0.00071242,
        "CLASSIFICATION_TYPE": "U",
        "ECCENTRICITY": 0.0010006,
        "ELEMENT_SET_NO": 999,
        "EPHEMERIS_TYPE": 0,
        "EPOCH": "2026-03-28T21:47:51.759744",
        "INCLINATION": 51.6324,
        "MEAN_ANOMALY": 104.5282,
        "MEAN_MOTION": 15.53414385,
        "MEAN_MOTION_DDOT": 0,
        "MEAN_MOTION_DOT": 0.00045826,
        "NORAD_CAT_ID": 67683,
        "OBJECT_ID": "1998-067XZ",
        "OBJECT_NAME": "KNACKSAT-2",
        "RA_OF_ASC_NODE": 336.2444,
        "REV_AT_EPOCH": 777
    },
    {
        "ARG_OF_PERICENTER": 245.56,
        "BSTAR": 0.0012606,
        "CLASSIFICATION_TYPE": "U",
        "ECCENTRICITY": 0.0012778,
        "ELEMENT_SET_NO": 999,
        "EPHEMERIS_TYPE": 0,
        "EPOCH": "2026-03-29T02:19:26.988096",
        "INCLINATION": 51.6305,
        "MEAN_ANOMALY": 114.4059,
        "MEAN_MOTION": 15.57621813,
        "MEAN_MOTION_DDOT": 0,
        "MEAN_MOTION_DOT": 0.00095932,
        "NORAD_CAT_ID": 67684,
        "OBJECT_ID": "1998-067YA",
        "OBJECT_NAME": "CORAL",
        "RA_OF_ASC_NODE": 334.5038,
        "REV_AT_EPOCH": 781
    }